2024-092F               
1 59778U 24092F   26068.91303411  .00025723  00000+0  79143-3 0  9992
2 59778  97.6418 198.4543 0008646 142.6506 217.5339 15.33614440100535
STARLINK-34850          
1 65460U 25195C   26068.71399470  .00027705  00000+0  94311-3 0  9996
2 65460  53.1596 258.3347 0001048  68.1690 291.9422 15.30232482 29995
